BEIDOU-2 IGSO-5-C10
1 37948U 11073A   23124.23865317 -.00000158  00000+0  00000+0 0  9993
2 37948  49.7558 285.4469 0086574 218.5098 258.6114  1.00260749 41979
